      2.10          N: GNSS NAV DATA                        RINEX VERSION / TYPE
fic2rin                                 01/13/2020 00:19:21 PGM / RUN BY / DATE
                                                            END OF HEADER
 6 20  1 12 14  0  0.0-1.801671460271e-04-1.034550223267e-11 0.000000000000e+00
    1.780000000000e+02-7.946875000000e+01 4.359824461332e-09 2.988424094945e-01
   -4.211440682411e-06 1.797936274670e-03 1.292675733566e-06 5.153731597900e+03
    5.040000000000e+04 1.490116119385e-08-8.356721536481e-01-1.490116119385e-08
    9.781112907413e-01 3.595937500000e+02-1.176730869370e+00-8.330704150124e-09
   -1.460775132862e-10 1.000000000000e+00 2.088000000000e+03 0.000000000000e+00
    2.400000000000e+00 0.000000000000e+00 4.656612873077e-09 1.780000000000e+02
    4.320000000000e+04 4.000000000000e+00
22 20  1 12 14  0  0.0-7.816506549716e-04-1.364242052659e-12 0.000000000000e+00
    1.050000000000e+02-1.408750000000e+02 5.005208487024e-09 1.218432800434e+00
   -7.348135113716e-06 6.977886892855e-03 1.086480915546e-05 5.153611810684e+03
    5.040000000000e+04 4.097819328308e-08 1.321187474361e-01-1.806765794754e-07
    9.298429465482e-01 1.576875000000e+02-1.240150522984e+00-8.264629969297e-09
    9.428964182777e-11 1.000000000000e+00 2.088000000000e+03 0.000000000000e+00
    2.400000000000e+00 0.000000000000e+00-1.816079020500e-08 1.050000000000e+02
    4.320000000000e+04 4.000000000000e+00
29 20  1 12 14  0  0.0-5.639158189297e-06-9.663381206337e-12 0.000000000000e+00
    1.130000000000e+02 1.183750000000e+02 4.006595462212e-09 2.396752491002e+00
    6.219372153282e-06 1.024105935358e-03 3.198161721230e-06 5.153640687943e+03
    5.040000000000e+04-1.676380634308e-08-1.814262615892e+00 8.568167686462e-08
    9.855762749679e-01 3.314375000000e+02 1.979484626189e+00-8.009262189347e-09
    3.428714248282e-10 1.000000000000e+00 2.088000000000e+03 0.000000000000e+00
    2.400000000000e+00 0.000000000000e+00-9.778887033463e-09 1.130000000000e+02
    4.320000000000e+04 4.000000000000e+00
24 20  1 12 14  0  0.0-7.478985935450e-06-4.547473508865e-13 0.000000000000e+00
    1.080000000000e+02-1.915625000000e+01 5.610948004220e-09 2.064348147015e-01
   -9.015202522278e-07 9.418922360055e-03 5.193054676056e-06 5.153655160904e+03
    5.040000000000e+04 7.450580596924e-09 2.250172706188e+00 1.005828380585e-07
    9.369228556262e-01 2.632500000000e+02 6.469678972898e-01-8.675718521357e-09
   -4.928776731906e-10 1.000000000000e+00 2.088000000000e+03 0.000000000000e+00
    3.400000000000e+00 0.000000000000e+00 2.793967723846e-09 1.080000000000e+02
    4.320000000000e+04 4.000000000000e+00
30 20  1 12 14  0  0.0-1.275688409805e-04-8.753886504564e-12 0.000000000000e+00
    6.500000000000e+01-2.246875000000e+01 5.388081578082e-09-7.461169565261e-01
   -1.300126314163e-06 4.188399878331e-03 5.951151251793e-06 5.153693468094e+03
    5.040000000000e+04 1.043081283569e-07 2.344753686688e+00-2.607703208923e-08
    9.391362916419e-01 2.527812500000e+02-2.929520121266e+00-8.420707899141e-09
   -5.235932383315e-10 1.000000000000e+00 2.088000000000e+03 0.000000000000e+00
    2.400000000000e+00 0.000000000000e+00 3.725290298462e-09 6.500000000000e+01
    4.320000000000e+04 4.000000000000e+00
27 20  1 12 14  0  0.0-1.789554953575e-04-1.136868377216e-11 0.000000000000e+00
    9.000000000000e+01 1.530625000000e+02 4.156244552840e-09 2.169410449864e+00
    7.849186658859e-06 7.629694300704e-03 4.220753908157e-06 5.153661437988e+03
    5.040000000000e+04-1.378357410431e-07-1.883374009767e+00-3.352761268616e-08
    9.782813988556e-01 3.059375000000e+02 4.960947331826e-01-8.162840015051e-09
    4.068026592493e-10 1.000000000000e+00 2.088000000000e+03 0.000000000000e+00
    2.400000000000e+00 0.000000000000e+00 1.862645149231e-09 9.000000000000e+01
    4.320000000000e+04 4.000000000000e+00
25 20  1 12 14  0  0.0-1.616217195988e-05 7.958078640513e-13 0.000000000000e+00
    9.600000000000e+01 7.165625000000e+01 3.978380001210e-09-1.691881880666e+00
    3.654509782791e-06 8.900684537366e-03 1.183897256851e-05 5.153610139847e+03
    5.040000000000e+04 2.458691596985e-07-2.926757009874e+00-5.587935447693e-08
    9.677739546412e-01 1.558125000000e+02 8.896785189785e-01-7.538885453411e-09
   -3.939449808183e-10 1.000000000000e+00 2.088000000000e+03 0.000000000000e+00
    2.400000000000e+00 0.000000000000e+00 5.587935447693e-09 9.600000000000e+01
    4.320000000000e+04 4.000000000000e+00
13 20  1 12 14  0  0.0-2.045230939984e-05 2.614797267597e-12 0.000000000000e+00
    9.200000000000e+01 2.581250000000e+01 4.755555230821e-09 1.294940215115e+00
    1.354143023491e-06 4.187262500636e-03 7.390975952148e-06 5.153658208847e+03
    5.040000000000e+04-1.490116119385e-07 1.385628471548e+00 1.676380634308e-08
    9.673868752949e-01 2.410312500000e+02 1.172459347535e+00-8.076407843376e-09
    5.185930300527e-10 1.000000000000e+00 2.088000000000e+03 0.000000000000e+00
    2.400000000000e+00 0.000000000000e+00-1.117587089539e-08 9.200000000000e+01
    4.320000000000e+04 4.000000000000e+00
23 20  1 12 14  0  0.0-1.435764133930e-04 2.501110429876e-12 0.000000000000e+00
    8.000000000000e+01 2.246875000000e+01 5.307363930154e-09 6.982305743918e-01
    1.447275280952e-06 1.331364898942e-02 8.499249815941e-06 5.153682443619e+03
    5.040000000000e+04-5.401670932770e-08 1.237486661807e+00 1.080334186554e-07
    9.430337014361e-01 2.093125000000e+02-2.208071198068e+00-8.507497228551e-09
    5.135928217740e-10 1.000000000000e+00 2.088000000000e+03 0.000000000000e+00
    2.400000000000e+00 0.000000000000e+00-2.048909664154e-08 8.000000000000e+01
    4.320000000000e+04 4.000000000000e+00
15 20  1 12 14  0  0.0-2.591195516288e-04 2.614797267597e-12 0.000000000000e+00
    8.100000000000e+01 2.668750000000e+01 5.593804432979e-09 1.275233103766e+00
    1.568347215652e-06 1.213623862714e-02 9.145587682724e-06 5.153618255615e+03
    5.040000000000e+04-2.235174179077e-07 1.158801994926e+00 1.266598701477e-07
    9.277971331490e-01 1.898750000000e+02 8.578963911025e-01-8.576071513516e-09
    5.075211402926e-10 1.000000000000e+00 2.088000000000e+03 0.000000000000e+00
    2.400000000000e+00 0.000000000000e+00-1.117587089539e-08 8.100000000000e+01
    4.320000000000e+04 4.000000000000e+00
21 20  1 12 14  0  0.0-5.682604387403e-05 5.570655048359e-12 0.000000000000e+00
    1.000000000000e+02-7.512500000000e+01 4.876988860448e-09-1.874069789340e+00
   -3.186985850334e-06 2.480564790312e-02 5.774199962616e-07 5.153580413818e+03
    5.040000000000e+04 1.620501279831e-07-8.978844170843e-01 4.898756742477e-07
    9.514070451451e-01 3.586875000000e+02-1.379066431081e+00-8.389278018532e-09
   -1.010756387775e-10 1.000000000000e+00 2.088000000000e+03 0.000000000000e+00
    2.400000000000e+00 0.000000000000e+00-1.024454832077e-08 1.000000000000e+02
    4.320000000000e+04 4.000000000000e+00
19 20  1 12 14  0  0.0-2.134963870049e-04 5.229594535194e-12 0.000000000000e+00
    5.500000000000e+01 1.184062500000e+02 4.066597961557e-09-1.495938047961e+00
    6.547197699547e-06 9.147711331025e-03 3.570690751076e-06 5.153667783737e+03
    5.040000000000e+04-2.048909664154e-08-1.779920068312e+00 2.160668373108e-07
    9.820320092093e-01 3.210937500000e+02 1.549139950251e+00-8.101408884770e-09
    3.871589838686e-10 1.000000000000e+00 2.088000000000e+03 0.000000000000e+00
    2.400000000000e+00 0.000000000000e+00-1.536682248116e-08 5.500000000000e+01
    4.320000000000e+04 4.000000000000e+00
12 20  1 12 14  0  0.0 1.631341874599e-04-4.092726157978e-12 0.000000000000e+00
    9.200000000000e+01 7.387500000000e+01 3.715154751108e-09-1.345818311535e+00
    3.842636942863e-06 7.815725984983e-03 1.160241663456e-05 5.153773136139e+03
    5.040000000000e+04 1.806765794754e-07-2.859587901611e+00 1.788139343262e-07
    9.804141622537e-01 1.672812500000e+02 1.098457879340e+00-7.533885245132e-09
   -3.614436270064e-10 1.000000000000e+00 2.088000000000e+03 0.000000000000e+00
    2.400000000000e+00 0.000000000000e+00-1.257285475731e-08 9.200000000000e+01
    4.320000000000e+04 4.000000000000e+00
26 20  1 12 14  0  0.0 1.257620751858e-04 7.958078640513e-12 0.000000000000e+00
    8.800000000000e+01 6.900000000000e+01 4.354467095319e-09-2.304485213459e+00
    3.490597009659e-06 4.518371075392e-03 1.279637217522e-05 5.153736459732e+03
    5.040000000000e+04-9.313225746155e-09-2.959517519807e+00-6.332993507385e-08
    9.489241747293e-01 1.284687500000e+02 1.670884582364e-01-7.812111120071e-09
   -4.268034923643e-10 1.000000000000e+00 2.088000000000e+03 0.000000000000e+00
    2.400000000000e+00 0.000000000000e+00 7.450580596924e-09 8.800000000000e+01
    4.320000000000e+04 4.000000000000e+00
20 20  1 12 14  0  0.0 5.277856253088e-04 0.000000000000e+00 0.000000000000e+00
    7.600000000000e+01-1.271562500000e+02 4.906990110120e-09-4.966904904783e-01
   -6.696209311485e-06 5.073417560197e-03 1.056119799614e-05 5.153630483627e+03
    5.040000000000e+04-1.117587089539e-08 8.423201273857e-02-7.636845111847e-08
    9.331505370312e-01 1.609062500000e+02 2.554732476028e+00-8.219628094789e-09
    7.178870457341e-11 1.000000000000e+00 2.088000000000e+03 0.000000000000e+00
    2.400000000000e+00 0.000000000000e+00-8.381903171539e-09 7.600000000000e+01
    4.320000000000e+04 4.000000000000e+00
18 20  1 12 14  0  0.0 1.129563897848e-04 2.501110429876e-12 0.000000000000e+00
    1.080000000000e+02-7.537500000000e+01 5.015923219050e-09-3.230096172071e-01
   -4.034489393234e-06 1.564484043047e-02 9.965151548386e-07 5.153650247574e+03
    5.040000000000e+04-1.844018697739e-07-8.874919772489e-01 1.545995473862e-07
    9.570392607324e-01 3.628750000000e+02 1.450056014276e+00-8.955015869498e-09
   -9.393248409357e-11 1.000000000000e+00 2.088000000000e+03 0.000000000000e+00
    3.400000000000e+00 6.300000000000e+01-5.587935447693e-09 1.080000000000e+02
    4.320000000000e+04 4.000000000000e+00
